CCSDS_OMM_VERS = 2.0
CREATION_DATE  = 
ORIGINATOR     = 

OBJECT_NAME    = SL-14 R/B
OBJECT_ID      = 1986-046B
CENTER_NAME    = EARTH
REF_FRAME      = TEME
TIME_SYSTEM    = UTC
MEAN_ELEMENT_THEORY = SGP/SGP4

EPOCH          = 2026-02-09T15:39:53.259264
MEAN_MOTION    = 14.85563160
ECCENTRICITY   = .0022138
INCLINATION    = 82.4813
RA_OF_ASC_NODE = 106.6775
ARG_OF_PERICENTER = 323.8311
MEAN_ANOMALY   = 36.1406

EPHEMERIS_TYPE = 0
CLASSIFICATION_TYPE = U
NORAD_CAT_ID   = 16792
ELEMENT_SET_NO = 999
REV_AT_EPOCH   = 12224
BSTAR          = .56133E-4
MEAN_MOTION_DOT = .511E-5
MEAN_MOTION_DDOT = 0

CCSDS_OMM_VERS = 2.0
CREATION_DATE  = 
ORIGINATOR     = 

OBJECT_NAME    = SL-14 R/B
OBJECT_ID      = 1986-055B
CENTER_NAME    = EARTH
REF_FRAME      = TEME
TIME_SYSTEM    = UTC
MEAN_ELEMENT_THEORY = SGP/SGP4

EPOCH          = 2026-02-09T19:03:01.603584
MEAN_MOTION    = 14.85613561
ECCENTRICITY   = .0020276
INCLINATION    = 82.5234
RA_OF_ASC_NODE = 152.8856
ARG_OF_PERICENTER = 66.5618
MEAN_ANOMALY   = 47.2760

EPHEMERIS_TYPE = 0
CLASSIFICATION_TYPE = U
NORAD_CAT_ID   = 16882
ELEMENT_SET_NO = 999
REV_AT_EPOCH   = 11522
BSTAR          = .72169E-4
MEAN_MOTION_DOT = .651E-5
MEAN_MOTION_DDOT = 0

CCSDS_OMM_VERS = 2.0
CREATION_DATE  = 
ORIGINATOR     = 

OBJECT_NAME    = AJISAI (EGS)
OBJECT_ID      = 1986-061A
CENTER_NAME    = EARTH
REF_FRAME      = TEME
TIME_SYSTEM    = UTC
MEAN_ELEMENT_THEORY = SGP/SGP4

EPOCH          = 2026-02-09T20:35:05.849376
MEAN_MOTION    = 12.44515367
ECCENTRICITY   = .0011232
INCLINATION    = 50.0075
RA_OF_ASC_NODE = 178.9305
ARG_OF_PERICENTER = 215.2809
MEAN_ANOMALY   = 253.1576

EPHEMERIS_TYPE = 0
CLASSIFICATION_TYPE = U
NORAD_CAT_ID   = 16908
ELEMENT_SET_NO = 999
REV_AT_EPOCH   = 46453
BSTAR          = .11989E-3
MEAN_MOTION_DOT = -.8E-6
MEAN_MOTION_DDOT = 0

CCSDS_OMM_VERS = 2.0
CREATION_DATE  = 
ORIGINATOR     = 

OBJECT_NAME    = COSMOS 1812
OBJECT_ID      = 1987-003A
CENTER_NAME    = EARTH
REF_FRAME      = TEME
TIME_SYSTEM    = UTC
MEAN_ELEMENT_THEORY = SGP/SGP4

EPOCH          = 2026-02-09T19:20:44.429856
MEAN_MOTION    = 15.95771465
ECCENTRICITY   = .0001428
INCLINATION    = 82.4771
RA_OF_ASC_NODE = 227.2672
ARG_OF_PERICENTER = 318.0076
MEAN_ANOMALY   = 42.1090

EPHEMERIS_TYPE = 0
CLASSIFICATION_TYPE = U
NORAD_CAT_ID   = 17295
ELEMENT_SET_NO = 999
REV_AT_EPOCH   = 14000
BSTAR          = .75357E-3
MEAN_MOTION_DOT = .302562E-2
MEAN_MOTION_DDOT = .34559E-4

CCSDS_OMM_VERS = 2.0
CREATION_DATE  = 
ORIGINATOR     = 

OBJECT_NAME    = SL-14 R/B
OBJECT_ID      = 1987-024B
CENTER_NAME    = EARTH
REF_FRAME      = TEME
TIME_SYSTEM    = UTC
MEAN_ELEMENT_THEORY = SGP/SGP4

EPOCH          = 2026-02-09T16:42:42.871392
MEAN_MOTION    = 14.86105313
ECCENTRICITY   = .0018095
INCLINATION    = 82.5289
RA_OF_ASC_NODE = 119.0741
ARG_OF_PERICENTER = 358.4423
MEAN_ANOMALY   = 1.6734

EPHEMERIS_TYPE = 0
CLASSIFICATION_TYPE = U
NORAD_CAT_ID   = 17567
ELEMENT_SET_NO = 999
REV_AT_EPOCH   = 8397
BSTAR          = .58315E-4
MEAN_MOTION_DOT = .536E-5
MEAN_MOTION_DDOT = 0

CCSDS_OMM_VERS = 2.0
CREATION_DATE  = 
ORIGINATOR     = 

OBJECT_NAME    = COSMOS 1833
OBJECT_ID      = 1987-027A
CENTER_NAME    = EARTH
REF_FRAME      = TEME
TIME_SYSTEM    = UTC
MEAN_ELEMENT_THEORY = SGP/SGP4

EPOCH          = 2026-02-09T09:40:09.682176
MEAN_MOTION    = 14.13056629
ECCENTRICITY   = .00249005
INCLINATION    = 70.9215
RA_OF_ASC_NODE = 25.4666
ARG_OF_PERICENTER = 252.4435
MEAN_ANOMALY   = 107.3966

EPHEMERIS_TYPE = 0
CLASSIFICATION_TYPE = U
NORAD_CAT_ID   = 17589
ELEMENT_SET_NO = 999
REV_AT_EPOCH   = 632
BSTAR          = .51135995E-4
MEAN_MOTION_DOT = .48E-6
MEAN_MOTION_DDOT = 0

CCSDS_OMM_VERS = 2.0
CREATION_DATE  = 
ORIGINATOR     = 

OBJECT_NAME    = SL-16 R/B
OBJECT_ID      = 1987-027B
CENTER_NAME    = EARTH
REF_FRAME      = TEME
TIME_SYSTEM    = UTC
MEAN_ELEMENT_THEORY = SGP/SGP4

EPOCH          = 2026-02-09T19:28:24.628224
MEAN_MOTION    = 14.17163186
ECCENTRICITY   = .0005036
INCLINATION    = 71.0049
RA_OF_ASC_NODE = 335.2401
ARG_OF_PERICENTER = 191.4689
MEAN_ANOMALY   = 168.6321

EPHEMERIS_TYPE = 0
CLASSIFICATION_TYPE = U
NORAD_CAT_ID   = 17590
ELEMENT_SET_NO = 999
REV_AT_EPOCH   = 1139
BSTAR          = -.77718E-4
MEAN_MOTION_DOT = -.205E-5
MEAN_MOTION_DDOT = 0

CCSDS_OMM_VERS = 2.0
CREATION_DATE  = 
ORIGINATOR     = 

OBJECT_NAME    = SL-14 R/B
OBJECT_ID      = 1987-038B
CENTER_NAME    = EARTH
REF_FRAME      = TEME
TIME_SYSTEM    = UTC
MEAN_ELEMENT_THEORY = SGP/SGP4

EPOCH          = 2026-02-09T19:28:42.397248
MEAN_MOTION    = 14.85341898
ECCENTRICITY   = .0017698
INCLINATION    = 82.5041
RA_OF_ASC_NODE = 323.0638
ARG_OF_PERICENTER = 256.0104
MEAN_ANOMALY   = 103.9145

EPHEMERIS_TYPE = 0
CLASSIFICATION_TYPE = U
NORAD_CAT_ID   = 17912
ELEMENT_SET_NO = 999
REV_AT_EPOCH   = 7509
BSTAR          = .6574E-4
MEAN_MOTION_DOT = .59E-5
MEAN_MOTION_DDOT = 0

CCSDS_OMM_VERS = 2.0
CREATION_DATE  = 
ORIGINATOR     = 

OBJECT_NAME    = COSMOS 1844
OBJECT_ID      = 1987-041A
CENTER_NAME    = EARTH
REF_FRAME      = TEME
TIME_SYSTEM    = UTC
MEAN_ELEMENT_THEORY = SGP/SGP4

EPOCH          = 2026-02-09T12:55:45.278400
MEAN_MOTION    = 14.14541329
ECCENTRICITY   = .0028868
INCLINATION    = 70.8980
RA_OF_ASC_NODE = 93.5567
ARG_OF_PERICENTER = 63.0766
MEAN_ANOMALY   = 297.3300

EPHEMERIS_TYPE = 0
CLASSIFICATION_TYPE = U
NORAD_CAT_ID   = 17973
ELEMENT_SET_NO = 999
REV_AT_EPOCH   = 99960
BSTAR          = .23788E-3
MEAN_MOTION_DOT = .41E-5
MEAN_MOTION_DDOT = 0

CCSDS_OMM_VERS = 2.0
CREATION_DATE  = 
ORIGINATOR     = 

OBJECT_NAME    = SL-14 R/B
OBJECT_ID      = 1987-055B
CENTER_NAME    = EARTH
REF_FRAME      = TEME
TIME_SYSTEM    = UTC
MEAN_ELEMENT_THEORY = SGP/SGP4

EPOCH          = 2026-02-09T09:20:32.928864
MEAN_MOTION    = 14.85594089
ECCENTRICITY   = .00222275
INCLINATION    = 82.4997
RA_OF_ASC_NODE = 15.6994
ARG_OF_PERICENTER = 105.9174
MEAN_ANOMALY   = 254.4494

EPHEMERIS_TYPE = 0
CLASSIFICATION_TYPE = U
NORAD_CAT_ID   = 18153
ELEMENT_SET_NO = 999
REV_AT_EPOCH   = 6573
BSTAR          = .75780374E-4
MEAN_MOTION_DOT = .683E-5
MEAN_MOTION_DDOT = 0

CCSDS_OMM_VERS = 2.0
CREATION_DATE  = 
ORIGINATOR     = 

OBJECT_NAME    = COSMOS 1867
OBJECT_ID      = 1987-060A
CENTER_NAME    = EARTH
REF_FRAME      = TEME
TIME_SYSTEM    = UTC
MEAN_ELEMENT_THEORY = SGP/SGP4

EPOCH          = 2026-02-09T08:33:54.319680
MEAN_MOTION    = 14.31498440
ECCENTRICITY   = .00141107
INCLINATION    = 65.0112
RA_OF_ASC_NODE = 26.0477
ARG_OF_PERICENTER = 276.5733
MEAN_ANOMALY   = 83.3745

EPHEMERIS_TYPE = 0
CLASSIFICATION_TYPE = U
NORAD_CAT_ID   = 18187
ELEMENT_SET_NO = 999
REV_AT_EPOCH   = 1588
BSTAR          = .35593143E-4
MEAN_MOTION_DOT = -.5E-7
MEAN_MOTION_DDOT = 0

CCSDS_OMM_VERS = 2.0
CREATION_DATE  = 
ORIGINATOR     = 

OBJECT_NAME    = SL-14 R/B
OBJECT_ID      = 1988-001B
CENTER_NAME    = EARTH
REF_FRAME      = TEME
TIME_SYSTEM    = UTC
MEAN_ELEMENT_THEORY = SGP/SGP4

EPOCH          = 2026-02-09T15:38:57.866496
MEAN_MOTION    = 14.85493780
ECCENTRICITY   = .001741
INCLINATION    = 82.5107
RA_OF_ASC_NODE = 221.7314
ARG_OF_PERICENTER = 335.6351
MEAN_ANOMALY   = 24.4040

EPHEMERIS_TYPE = 0
CLASSIFICATION_TYPE = U
NORAD_CAT_ID   = 18749
ELEMENT_SET_NO = 999
REV_AT_EPOCH   = 3786
BSTAR          = .63984E-4
MEAN_MOTION_DOT = .577E-5
MEAN_MOTION_DDOT = 0

