SL-14 R/B               
1 16792U 86046B   26040.65269976  .00000511  00000+0  56133-4 0  9999
2 16792  82.4813 106.6775 0022138 323.8311  36.1406 14.85563160122242
SL-14 R/B               
1 16882U 86055B   26040.79376856  .00000651  00000+0  72169-4 0  9992
2 16882  82.5234 152.8856 0020276  66.5618  47.2760 14.85613561115222
AJISAI (EGS)            
1 16908U 86061A   26040.85770659 -.00000080  00000+0  11989-3 0  9993
2 16908  50.0075 178.9305 0011232 215.2809 253.1576 12.44515367464531
COSMOS 1812             
1 17295U 87003A   26040.80606979  .00302562  34559-4  75357-3 0  9997
2 17295  82.4771 227.2672 0001428 318.0076  42.1090 15.95771465140004
SL-14 R/B               
1 17567U 87024B   26040.69632953  .00000536  00000+0  58315-4 0  9991
2 17567  82.5289 119.0741 0018095 358.4423   1.6734 14.86105313 83977
COSMOS 1833             
1 17589U 87027A   26040.40288984  .00000048  00000+0  51136-4 0  9990
2 17589  70.9215  25.4666 0024900 252.4435 107.3966 14.13056629  6325
SL-16 R/B               
1 17590U 87027B   26040.81139616 -.00000205  00000+0 -77718-4 0  9995
2 17590  71.0049 335.2401 0005036 191.4689 168.6321 14.17163186 11394
SL-14 R/B               
1 17912U 87038B   26040.81160182  .00000590  00000+0  65740-4 0  9994
2 17912  82.5041 323.0638 0017698 256.0104 103.9145 14.85341898 75091
COSMOS 1844             
1 17973U 87041A   26040.53871850  .00000410  00000+0  23788-3 0  9991
2 17973  70.8980  93.5567 0028868  63.0766 297.3300 14.14541329999607
SL-14 R/B               
1 18153U 87055B   26040.38927001  .00000683  00000+0  75780-4 0  9992
2 18153  82.4997  15.6994 0022227 105.9174 254.4494 14.85594089 65731
COSMOS 1867             
1 18187U 87060A   26040.35687870 -.00000005  00000+0  35593-4 0  9996
2 18187  65.0112  26.0477 0014110 276.5733  83.3745 14.31498440 15888
SL-14 R/B               
1 18749U 88001B   26040.65205864  .00000577  00000+0  63984-4 0  9996
2 18749  82.5107 221.7314 0017410 335.6351  24.4040 14.85493780 37860
